OBJECT_NAME,OBJECT_ID,EPOCH,MEAN_MOTION,ECCENTRICITY,INCLINATION,RA_OF_ASC_NODE,ARG_OF_PERICENTER,MEAN_ANOMALY,EPHEMERIS_TYPE,CLASSIFICATION_TYPE,NORAD_CAT_ID,ELEMENT_SET_NO,REV_AT_EPOCH,BSTAR,MEAN_MOTION_DOT,MEAN_MOTION_DDOT
STARLINK-31042,2024-005M,2026-02-22T02:14:15.984384,15.03155367,.00014308,43.0026,306.5234,253.0949,106.9737,0,U,58739,999,11807,.58619671E-2,.81232E-3,0
STARLINK-31159,2024-005N,2026-02-20T02:18:30.589632,15.02535636,.0001025,43.0029,317.3412,255.4649,104.6080,0,U,58740,999,11786,.65171186E-4,.677E-5,0
STARLINK-31148,2024-005P,2026-02-22T21:12:15.177600,15.03795881,.00003366,42.9992,302.1562,190.7784,169.3052,0,U,58741,999,11819,.1099199E-1,.156818E-2,0
STARLINK-31151,2024-005Q,2026-02-22T01:59:44.323296,15.03182813,.00022826,43.0043,306.4668,234.2761,125.7870,0,U,58742,999,11816,.57941127E-2,.8034E-3,0
STARLINK-31156,2024-005R,2026-02-22T22:00:01.999584,15.07120131,.00009729,43.0001,301.8613,281.7086,304.9216,0,U,58743,999,573,.10163164E+0,.1701392E-1,0
STARLINK-31167,2024-005S,2026-02-21T08:14:33.792288,15.27575220,.00009339,42.9992,166.6167,247.4155,112.6598,0,U,58744,999,11970,.70082476E-4,.1667E-4,0
STARLINK-31176,2024-005T,2026-02-22T17:43:42.570624,15.02503156,.00010853,42.9994,302.7807,243.8475,116.2256,0,U,58745,999,11821,-.30771293E-3,-.4354E-4,0
STARLINK-31181,2024-005U,2026-02-22T00:10:28.518528,15.27610501,.00016074,43.0027,156.0842,274.3619,85.7049,0,U,58746,999,11988,.75643335E-3,.20631E-3,0
STARLINK-31183,2024-005V,2026-02-21T17:38:08.821248,15.02535309,.00016172,43.0057,308.1486,254.0453,106.0212,0,U,58747,999,11812,.56045864E-4,.553E-5,0
STARLINK-31165,2024-005W,2026-02-22T01:41:35.059488,15.02535672,.00012173,43.0044,306.3662,271.2292,88.8411,0,U,58748,999,11807,.57861573E-4,.578E-5,0
STARLINK-31160,2024-005X,2026-02-21T17:28:32.780352,15.02535740,.00014474,43.0049,308.0319,265.0633,95.0045,0,U,58749,999,11802,.8214825E-5,-.93E-6,0
STARLINK-31179,2024-005Y,2026-02-22T15:53:32.606880,15.02538969,.0001367,43.0045,303.0635,261.4003,98.6685,0,U,58750,999,11816,.6945E-4,.735E-5,0
EINSTEIN PROBE,2024-007A,2026-02-22T21:51:09.578592,15.01210818,.00100793,28.9971,236.3779,94.8736,265.3013,0,U,58753,999,11637,.24535221E-3,.3379E-4,0
NANOFF B,2023-185S,2026-02-22T22:54:13.373280,15.11396170,.00119403,97.5389,123.0370,345.0023,15.0851,0,U,58755,999,11661,.26497108E-3,.4416E-4,0
YUNYAO-1 18,2024-009A,2026-02-22T20:47:31.305984,15.20362779,.00046688,49.9947,356.5820,185.2104,174.8802,0,U,58758,999,11743,.86037133E-3,.18733E-3,0
YUNYAO-1 19,2024-009B,2026-02-22T21:57:52.998336,15.15613401,.00051041,49.9845,5.2791,179.9193,180.1760,0,U,58759,999,11732,.76414299E-3,.14446E-3,0
YUNYAO-1 20,2024-009C,2026-02-22T22:16:25.137408,15.15775547,.00037312,49.9798,3.5092,184.7924,175.2992,0,U,58760,999,11734,.82072304E-3,.15612E-3,0
STARLINK-31127,2024-011A,2026-02-22T08:46:47.152992,15.30199201,.00014342,53.1587,84.8891,86.1225,273.9940,0,U,58765,999,11792,-.39624655E-4,-.1533E-4,0
STARLINK-31114,2024-011B,2026-02-22T18:24:00.577440,15.30205408,.0001547,53.1608,81.0174,90.7229,269.3949,0,U,58766,999,11801,.7289319E-4,.18E-4,0
STARLINK-31140,2024-011C,2026-02-22T05:29:33.778752,15.30191748,.00012597,53.1603,85.4571,81.6140,278.5004,0,U,58767,999,11790,.48118116E-4,.1066E-4,0
STARLINK-31145,2024-011D,2026-02-22T22:00:01.999584,15.85336088,.00157178,53.1247,77.3438,40.6674,264.2952,0,U,58768,999,563,.15302107E-2,.392217E-2,0
STARLINK-31146,2024-011E,2026-02-22T19:31:28.634304,15.30199782,.00015801,53.1617,82.7063,77.0183,283.0995,0,U,58769,999,11799,.12053198E-4,-.2E-7,0
STARLINK-31143,2024-011F,2026-02-22T19:26:55.330368,15.30194214,.00014674,53.1606,82.6857,93.9645,266.1524,0,U,58770,999,11799,.46273946E-4,.1011E-4,0
STARLINK-31135,2024-011G,2026-02-22T05:36:24.103584,15.30193774,.00014012,53.1606,83.3750,103.7237,256.3920,0,U,58771,999,11793,.33473059E-4,.632E-5,0
STARLINK-31136,2024-011H,2026-02-22T13:24:23.318208,15.30195055,.0001337,53.1600,83.9532,102.1040,258.0111,0,U,58772,999,11794,.41885E-4,.881E-5,0
STARLINK-31073,2024-011J,2026-02-22T05:43:14.481120,15.30190614,.00011644,53.1603,85.5117,96.5123,263.6010,0,U,58773,999,11790,.94261926E-4,.2433E-4,0
STARLINK-31122,2024-011K,2026-02-22T05:52:20.837568,15.30199756,.00011132,53.1592,85.5483,85.6900,274.4228,0,U,58774,999,11790,.50538482E-4,.1138E-4,0
STARLINK-31123,2024-011L,2026-02-22T19:19:19.700832,15.30199103,.00014195,53.1597,82.6512,83.2096,276.9066,0,U,58775,999,11799,.12624354E-3,.3381E-4,0
STARLINK-31117,2024-011M,2026-02-22T06:02:59.765568,15.30190552,.00011207,53.1583,85.5924,86.6576,273.4553,0,U,58776,999,11790,.54056768E-4,.1242E-4,0
STARLINK-31132,2024-011N,2026-02-22T13:35:21.980832,15.30184430,.0001369,53.1623,353.7822,83.6538,276.4619,0,U,58777,999,11924,.11266E-4,-.26E-6,0
STARLINK-31120,2024-011P,2026-02-22T18:53:39.082560,15.30194228,.00013558,53.1607,83.2410,92.8184,267.2972,0,U,58778,999,11798,.26984022E-4,.44E-5,0
STARLINK-31142,2024-011Q,2026-02-22T18:32:22.818912,15.30192959,.00009828,53.1595,83.1518,83.6508,276.4605,0,U,58779,999,11798,.36315237E-4,.716E-5,0
STARLINK-31099,2024-011S,2026-02-22T18:27:48.067776,15.30221864,.0001379,53.1597,83.1319,87.1806,272.9353,0,U,58781,999,11798,-.12798525E-3,-.415E-4,0
STARLINK-31047,2024-011U,2026-02-22T06:45:14.387328,15.30191901,.00015636,53.1611,69.6975,88.4277,271.6903,0,U,58783,999,11813,.8506277E-5,-.107E-5,0
STARLINK-31039,2024-011V,2026-02-22T05:46:16.706496,15.30193232,.00015372,53.1605,85.5167,121.9665,238.1486,0,U,58784,999,11790,-.1795224E-5,-.412E-5,0
STARLINK-31034,2024-011W,2026-02-22T22:43:49.957536,15.30202984,.00008808,53.1613,339.7892,47.1076,312.9999,0,U,58785,999,11947,-.41667035E-4,-.1593E-4,0
STARLINK-31024,2024-011X,2026-02-22T18:25:32.958912,15.30185593,.00011041,53.1603,81.0142,90.9734,269.1393,0,U,58786,999,11801,.18387199E-3,.5088E-4,0
STARLINK-31189,2024-012A,2026-02-22T19:17:37.080960,15.27574187,.00018982,43.0035,248.9584,284.0385,76.0256,0,U,58787,999,11896,.2925798E-4,.543E-5,0
STARLINK-31185,2024-012B,2026-02-22T14:22:24.503808,15.27574094,.0001235,43.0024,250.8511,273.1029,86.9681,0,U,58788,999,11892,.14779E-4,.145E-5,0
STARLINK-31166,2024-012C,2026-02-22T14:59:12.072192,15.27577805,.00009664,42.9996,250.1806,280.7836,79.2907,0,U,58789,999,11893,.28388996E-4,.519E-5,0
STARLINK-31187,2024-012D,2026-02-21T14:48:12.187872,15.27581543,.0001363,43.0046,256.3824,278.9191,81.1506,0,U,58790,999,11877,.41533E-4,.881E-5,0
STARLINK-31162,2024-012E,2026-02-22T14:57:20.860704,15.27579787,.000126,43.0006,250.1804,262.2537,97.8171,0,U,58791,999,11893,.25369E-5,-.192E-5,0
STARLINK-31184,2024-012G,2026-02-22T21:06:33.515712,15.27585252,.00016811,43.0030,248.6587,252.7980,107.2687,0,U,58793,999,11897,-.83262187E-4,-.2553E-4,0
STARLINK-31192,2024-012H,2026-02-22T14:16:51.112992,15.27572045,.00006165,42.9974,250.8142,261.8405,98.2377,0,U,58794,999,11892,.18215636E-4,.239E-5,0
STARLINK-31161,2024-012J,2026-02-22T19:36:06.840576,15.27580569,.00010756,43.0002,249.0485,279.3882,80.6848,0,U,58795,999,11896,.24903115E-4,.423E-5,0
STARLINK-31195,2024-012K,2026-02-22T22:18:41.723712,15.27597895,.00013876,43.0019,249.0363,266.8861,93.1832,0,U,58796,999,11897,.1063854E-3,.2668E-4,0
STARLINK-31193,2024-012L,2026-02-21T23:25:02.289216,15.27576556,.00005711,42.9996,253.9115,269.7760,90.3027,0,U,58797,999,11883,.15243435E-4,.158E-5,0
STARLINK-31168,2024-012M,2026-02-22T21:28:47.089344,15.27574220,.00006905,42.9976,248.7709,263.6727,96.4046,0,U,58798,999,11897,-.27581398E-4,-.102E-4,0
STARLINK-31191,2024-012P,2026-02-22T14:44:24.037440,15.27572726,.0001389,43.0016,250.1063,269.5804,90.4889,0,U,58800,999,11893,.10563E-4,.28E-6,0
STARLINK-31170,2024-012Q,2026-02-22T21:38:01.470624,15.27578561,.00012083,42.9969,248.8173,264.0202,96.0512,0,U,58801,999,11897,.21426677E-4,.328E-5,0
STARLINK-31141,2024-012S,2026-02-22T21:52:50.009952,15.27562122,.00009946,42.9972,248.8921,279.1291,80.9448,0,U,58803,999,11897,-.30178947E-3,-.8552E-4,0
STARLINK-31188,2024-012T,2026-02-22T21:43:35.547456,15.27557090,.0000906,42.9989,248.8459,275.9686,84.1063,0,U,58804,999,11897,.12423934E-3,.3156E-4,0
STARLINK-31138,2024-012V,2026-02-22T21:47:17.058048,15.27567739,.00010816,42.9996,248.8609,274.5084,85.5644,0,U,58806,999,11897,-.4802189E-5,-.394E-5,0
STARLINK-31163,2024-012W,2026-02-22T22:24:02.549376,15.27605127,.00022835,43.0052,248.2042,282.1392,77.9204,0,U,58807,999,11898,.58713576E-4,.1355E-4,0
STARLINK-31174,2024-012X,2026-02-22T19:13:54.810048,15.27575118,.00011985,43.0005,248.9281,259.1168,100.9549,0,U,58808,999,11896,.49402012E-4,.1097E-4,0
STARLINK-31169,2024-012Y,2026-02-22T20:07:34.584672,15.27577975,.00004987,42.9980,249.2026,254.7743,105.3053,0,U,58809,999,11896,-.13580687E-4,-.635E-5,0
NANOFF A,2023-185T,2026-02-21T15:07:28.888608,15.11381288,.00098913,97.5392,121.7089,355.1433,4.9700,0,U,58810,999,11558,.19853774E-3,.3289E-4,0
SORAYA,2024-015A,2026-02-22T22:46:33.549888,14.42666720,.00156851,64.5150,52.7163,230.4316,129.5385,0,U,58817,999,11029,.68418687E-4,.121E-5,0
2024-016A,2024-016A,2026-02-22T23:18:29.943360,15.47863635,.00076756,97.4482,145.2311,114.3446,245.8606,0,U,58820,999,11636,.66150558E-3,.34452E-3,0
2024-016B,2024-016B,2026-02-22T21:50:29.946048,15.54476793,.00060322,97.4501,144.7828,130.4968,229.6812,0,U,58821,999,11632,.10225124E-2,.67669E-3,0
2024-016C,2024-016C,2026-02-22T23:18:36.870912,15.23241902,.00096955,97.4433,135.4080,233.8552,126.1788,0,U,58822,999,11573,.58401863E-3,.13791E-3,0
2024-016D,2024-016D,2026-02-22T22:15:13.727808,15.44378851,.00080779,97.4374,140.6075,130.8004,229.3946,0,U,58823,999,11609,.84809795E-3,.39251E-3,0
STARLINK-31233,2024-017A,2026-02-22T21:45:46.508256,15.30194487,.00011576,53.1586,272.9375,88.6532,271.4601,0,U,58826,999,11791,.16015113E-4,.115E-5,0
STARLINK-31271,2024-017B,2026-02-22T08:17:17.312064,15.30203684,.0005719,53.1574,275.8263,65.5951,294.5646,0,U,58827,999,11770,.13387E-1,.419334E-2,0
